OBJECT_NAME,OBJECT_ID,EPOCH,MEAN_MOTION,ECCENTRICITY,INCLINATION,RA_OF_ASC_NODE,ARG_OF_PERICENTER,MEAN_ANOMALY,EPHEMERIS_TYPE,CLASSIFICATION_TYPE,NORAD_CAT_ID,ELEMENT_SET_NO,REV_AT_EPOCH,BSTAR,MEAN_MOTION_DOT,MEAN_MOTION_DDOT
HAWK-10A,2024-149CA,2026-06-18T18:35:02.906016,14.96522181,.00049156,97.6899,245.6584,74.2548,285.9215,0,U,60540,999,10022,.11682944E-3,.1271E-4,0
UMBRA-09,2024-149CB,2026-06-18T18:45:00.041472,15.18076002,.00006318,97.6975,257.0153,238.5968,121.5203,0,U,60541,999,10096,.50298505E-3,.10185E-3,0
QPS-SAR-8 (AMATERU-IV),2024-149CC,2026-06-18T18:57:58.593600,15.04142981,.00046131,97.6652,248.9271,105.1274,255.0462,0,U,60542,999,10051,.2422448E-3,.3299E-4,0
ARCTIC WEATHER SATELLITE,2024-149CD,2026-06-18T18:22:30.733536,14.89784390,.00035828,97.6804,240.1860,99.7538,260.4084,0,U,60543,999,9953,.66748176E-4,.587E-5,0
CAPELLA-15 (ACADIA-5),2024-149CE,2026-06-18T22:21:37.289376,14.92413879,.00046879,97.6772,242.7919,75.6308,284.5432,0,U,60544,999,10011,.29291343E-3,.2946E-4,0
HAWK-10B,2024-149CF,2026-06-18T18:34:49.853568,14.96521020,.00068917,97.6820,245.0119,88.3539,271.8472,0,U,60545,999,10022,.10380718E-3,.1123E-4,0
ICEYE-X39,2024-149CG,2026-06-18T22:40:41.253024,14.99904717,.00054759,97.6759,246.9446,114.4437,245.7359,0,U,60546,999,10038,.20559337E-3,.2492E-4,0
UMBRA-10,2024-149CH,2026-06-18T18:44:21.206400,15.18079809,.00004261,97.6977,257.0413,83.1729,276.9552,0,U,60547,999,10097,.57008982E-3,.11557E-3,0
ICEYE-X33,2024-149CJ,2026-06-18T18:27:38.239776,15.00875914,.00019077,97.7286,248.9010,91.1844,268.9598,0,U,60548,999,10044,.29831702E-3,.3736E-4,0
ICEYE-X40,2024-149CK,2026-06-18T18:31:55.905312,14.97948455,.0006504,97.6821,246.2425,77.6027,282.5923,0,U,60549,999,10031,.15702524E-3,.1794E-4,0
SATELIOT_1,2024-149CL,2026-06-18T23:07:35.687136,14.98077219,.00084087,97.6757,245.8318,75.3770,284.8384,0,U,60550,999,10033,.1981479E-3,.2287E-4,0
BRO-14,2024-149CM,2026-06-18T22:25:11.715168,14.96177568,.00080511,97.6872,245.6806,92.4902,267.7241,0,U,60551,999,10025,.60109027E-4,.62E-5,0
SATELIOT_3,2024-149CN,2026-06-18T22:32:43.263168,14.98058294,.00059183,97.6816,246.6014,82.4684,277.7211,0,U,60552,999,10034,.13704312E-3,.1563E-4,0
BRO-15,2024-149CP,2026-06-18T10:45:47.566944,14.96169110,.0009533,97.6805,244.8041,84.8682,275.3627,0,U,60553,999,10019,.10486E-3,.1125E-4,0
UM5-RIBAT,2024-149CQ,2026-06-18T22:31:41.720448,15.01083256,.00033908,97.6632,247.7157,58.8991,301.2566,0,U,60554,999,10045,.1807319E-3,.2252E-4,0
UM5-EOSAT,2024-149CR,2026-06-18T18:30:36.562464,15.01542487,.00088469,97.6714,248.4886,109.4335,250.7846,0,U,60555,999,10045,.28500427E-3,.3633E-4,0
LASARSAT,2024-247Q,2026-06-16T23:25:46.453440,15.46364825,.000818,44.9742,263.4006,330.0323,30.0098,0,U,62391,999,8328,.52389176E-3,.26221E-3,0
CROCUBE,2024-247T,2026-06-17T16:25:00.765696,15.48292245,.00079679,44.9716,256.7472,338.3414,21.7139,0,U,62394,999,8342,.53654775E-3,.2875E-3,0
TEVEL2-4,2025-052D,2026-06-18T22:37:30.361728,15.34660413,.00049641,97.3897,66.3370,99.6798,260.5006,0,U,63213,999,7038,.42338953E-3,.14157E-3,0
TEVEL2-5,2025-052E,2026-06-18T23:07:18.741504,15.34486837,.00048676,97.3893,66.3049,101.1149,259.0642,0,U,63214,999,7038,.41816528E-3,.13903E-3,0
TEVEL2-6,2025-052F,2026-06-18T15:35:35.968704,15.34444200,.00047536,97.3902,65.9753,102.3896,257.7879,0,U,63215,999,7033,.44149186E-3,.14665E-3,0
TEVEL2-1,2025-052H,2026-06-16T23:35:41.336448,15.33862790,.0004776,97.3878,63.9315,114.0246,246.1497,0,U,63217,999,7006,.46759393E-3,.15254E-3,0
TEVEL2-3,2025-052J,2026-06-18T05:12:47.300832,15.33951855,.0004784,97.3876,65.1876,111.6864,248.4888,0,U,63218,999,7025,.41717E-3,.13636E-3,0
TEVEL2-2,2025-052K,2026-06-18T14:44:37.860576,15.33915374,.00047719,97.3876,65.5651,111.0401,249.1353,0,U,63219,999,7031,.41444408E-3,.13531E-3,0
TEVEL2-9,2025-052AD,2026-06-18T04:50:24.775296,15.31922489,.0007883,97.3936,64.5254,127.9534,232.2421,0,U,63237,999,7018,.40696E-3,.12483E-3,0
TEVEL2-7,2025-052AE,2026-06-18T23:04:27.531264,15.31643391,.00080086,97.3937,65.1990,126.3345,233.8637,0,U,63238,999,7029,.37872512E-3,.1151E-3,0
TEVEL2-8,2025-052AF,2026-06-18T23:16:22.046304,15.31628527,.00079986,97.3937,65.1840,126.6722,233.5256,0,U,63239,999,7029,.39346486E-3,.11956E-3,0
FORESAIL-1 PRIME,2025-276DS,2026-06-18T12:17:14.952768,15.18712200,.0003953,97.4198,242.7588,100.5303,259.6377,0,U,66778,999,3060,.17953E-3,.3659E-4,0
