HAWK-10A                
1 60540U 24149CA  26169.77433919  .00001271  00000+0  11683-3 0  9994
2 60540  97.6899 245.6584 0004915  74.2548 285.9215 14.96522181100224
UMBRA-09                
1 60541U 24149CB  26169.78125048  .00010185  00000+0  50299-3 0  9997
2 60541  97.6975 257.0153 0000631 238.5968 121.5203 15.18076002100965
QPS-SAR-8 (AMATERU-IV)  
1 60542U 24149CC  26169.79026150  .00003299  00000+0  24224-3 0  9990
2 60542  97.6652 248.9271 0004613 105.1274 255.0462 15.04142981100517
ARCTIC WEATHER SATELLITE
1 60543U 24149CD  26169.76563349  .00000587  00000+0  66748-4 0  9999
2 60543  97.6804 240.1860 0003582  99.7538 260.4084 14.89784390 99537
CAPELLA-15 (ACADIA-5)   
1 60544U 24149CE  26169.93168159  .00002946  00000+0  29291-3 0  9991
2 60544  97.6772 242.7919 0004687  75.6308 284.5432 14.92413879100116
HAWK-10B                
1 60545U 24149CF  26169.77418812  .00001123  00000+0  10381-3 0  9994
2 60545  97.6820 245.0119 0006891  88.3539 271.8472 14.96521020100222
ICEYE-X39               
1 60546U 24149CG  26169.94492191  .00002492  00000+0  20559-3 0  9994
2 60546  97.6759 246.9446 0005475 114.4437 245.7359 14.99904717100384
UMBRA-10                
1 60547U 24149CH  26169.78080100  .00011557  00000+0  57009-3 0  9992
2 60547  97.6977 257.0413 0000426  83.1729 276.9552 15.18079809100974
ICEYE-X33               
1 60548U 24149CJ  26169.76919259  .00003736  00000+0  29832-3 0  9990
2 60548  97.7286 248.9010 0001907  91.1844 268.9598 15.00875914100448
ICEYE-X40               
1 60549U 24149CK  26169.77217483  .00001794  00000+0  15703-3 0  9996
2 60549  97.6821 246.2425 0006504  77.6027 282.5923 14.97948455100310
SATELIOT_1              
1 60550U 24149CL  26169.96360749  .00002287  00000+0  19815-3 0  9999
2 60550  97.6757 245.8318 0008408  75.3770 284.8384 14.98077219100331
BRO-14                  
1 60551U 24149CM  26169.93416337  .00000620  00000+0  60109-4 0  9994
2 60551  97.6872 245.6806 0008051  92.4902 267.7241 14.96177568100250
SATELIOT_3              
1 60552U 24149CN  26169.93938962  .00001563  00000+0  13704-3 0  9993
2 60552  97.6816 246.6014 0005918  82.4684 277.7211 14.98058294100340
BRO-15                  
1 60553U 24149CP  26169.44846721  .00001125  00000+0  10486-3 0  9999
2 60553  97.6805 244.8041 0009533  84.8682 275.3627 14.96169110100196
UM5-RIBAT               
1 60554U 24149CQ  26169.93867732  .00002252  00000+0  18073-3 0  9991
2 60554  97.6632 247.7157 0003390  58.8991 301.2566 15.01083256100457
UM5-EOSAT               
1 60555U 24149CR  26169.77125651  .00003633  00000+0  28500-3 0  9991
2 60555  97.6714 248.4886 0008846 109.4335 250.7846 15.01542487100457
LASARSAT                
1 62391U 24247Q   26167.97623210  .00026221  00000+0  52389-3 0  9994
2 62391  44.9742 263.4006 0008180 330.0323  30.0098 15.46364825 83280
CROCUBE                 
1 62394U 24247T   26168.68403664  .00028750  00000+0  53655-3 0  9991
2 62394  44.9716 256.7472 0007967 338.3414  21.7139 15.48292245 83427
TEVEL2-4                
1 63213U 25052D   26169.94271252  .00014157  00000+0  42339-3 0  9996
2 63213  97.3897  66.3370 0004964  99.6798 260.5006 15.34660413 70386
TEVEL2-5                
1 63214U 25052E   26169.96341136  .00013903  00000+0  41817-3 0  9996
2 63214  97.3893  66.3049 0004867 101.1149 259.0642 15.34486837 70382
TEVEL2-6                
1 63215U 25052F   26169.64972186  .00014665  00000+0  44149-3 0  9994
2 63215  97.3902  65.9753 0004753 102.3896 257.7879 15.34444200 70337
TEVEL2-1                
1 63217U 25052H   26167.98311732  .00015254  00000+0  46759-3 0  9999
2 63217  97.3878  63.9315 0004776 114.0246 246.1497 15.33862790 70062
TEVEL2-3                
1 63218U 25052J   26169.21721413  .00013636  00000+0  41717-3 0  9990
2 63218  97.3876  65.1876 0004784 111.6864 248.4888 15.33951855 70256
TEVEL2-2                
1 63219U 25052K   26169.61432709  .00013531  00000+0  41444-3 0  9993
2 63219  97.3876  65.5651 0004771 111.0401 249.1353 15.33915374 70317
TEVEL2-9                
1 63237U 25052AD  26169.20167564  .00012483  00000+0  40696-3 0  9995
2 63237  97.3936  64.5254 0007883 127.9534 232.2421 15.31922489 70189
TEVEL2-7                
1 63238U 25052AE  26169.96142976  .00011510  00000+0  37873-3 0  9992
2 63238  97.3937  65.1990 0008008 126.3345 233.8637 15.31643391 70298
TEVEL2-8                
1 63239U 25052AF  26169.96969961  .00011956  00000+0  39346-3 0  9995
2 63239  97.3937  65.1840 0007998 126.6722 233.5256 15.31628527 70290
FORESAIL-1 PRIME        
1 66778U 25276DS  26169.51197862  .00003659  00000+0  17953-3 0  9999
2 66778  97.4198 242.7588 0003953 100.5303 259.6377 15.18712200 30607
